CCSDS_OMM_VERS,COMMENT,CREATION_DATE,ORIGINATOR,OBJECT_NAME,OBJECT_ID,CENTER_NAME,REF_FRAME,TIME_SYSTEM,MEAN_ELEMENT_THEORY,EPOCH,MEAN_MOTION,ECCENTRICITY,INCLINATION,RA_OF_ASC_NODE,ARG_OF_PERICENTER,MEAN_ANOMALY,EPHEMERIS_TYPE,CLASSIFICATION_TYPE,NORAD_CAT_ID,ELEMENT_SET_NO,REV_AT_EPOCH,BSTAR,MEAN_MOTION_DOT,MEAN_MOTION_DDOT,SEMIMAJOR_AXIS,PERIOD,APOAPSIS,PERIAPSIS,OBJECT_TYPE,RCS_SIZE,COUNTRY_CODE,LAUNCH_DATE,SITE,DECAY_DATE,FILE,GP_ID,TLE_LINE0,TLE_LINE1,TLE_LINE2
3.0,GENERATED VIA SPACE-TRACK.ORG API,2005-05-02T23:37:10,18 SPCS,COSMOS 1813 DEB,1987-004EK,EARTH,TEME,UTC,SGP4,1987-08-24T22:08:29.872607,14.86951123,0.0333101,72.7622,196.0948,51.8272,311.2409,0,U,18032,999,2929,0.018532,0.00473105,0.0,6985.609,96.842,840.166,374.783,DEBRIS,,,,,1987-09-29,130982,42464951,0 COSMOS 1813 DEB,1 18032U 87004 EK 87236.92256797  .00473105 +00000-0 +18532-1 0  9996,2 18032 072.7622 196.0948 0333101 051.8272 311.2409 14.86951123029297
3.0,GENERATED VIA SPACE-TRACK.ORG API,2023-02-28T02:53:13,18 SPCS,RESURS O1 DEB,1994-074FY,EARTH,TEME,UTC,SGP4,2023-02-04T21:22:41.110176,15.16319283,0.0003985,97.8849,96.4669,269.1846,90.8929,0,U,49244,999,7771,0.0094773,0.00188316,0.0,6895.113,94.967,519.726,514.231,DEBRIS,SMALL,CIS,1994-11-04,TTMTR,2023-04-06,3846812,227193520,0 RESURS O1 DEB,1 49244U 94074FY  23035.89075359  .00188316  00000-0  94773-2 0  9995,2 49244  97.8849  96.4669 0003985 269.1846  90.8929 15.16319283 77719
3.0,GENERATED VIA SPACE-TRACK.ORG API,2004-08-15T23:38:44,18 SPCS,SCOUT X-3 DEB,1963-022D,EARTH,TEME,UTC,SGP4,1971-02-24T02:23:43.634975,16.02891183,0.0014078,89.6891,277.5061,12.6002,347.558,0,U,611,999,41617,0.0,0.02164145,0.0,6644.557,89.837,275.777,257.068,DEBRIS,,,,,1971-03-01,33973,8918043,0 SCOUT X-3 DEB,1 00611U 63022  D 71055.09981059  .02164145 +00000-0 +00000-0 0  9993,2 00611 089.6891 277.5061 0014078 012.6002 347.5580 16.02891183416170
3.0,GENERATED VIA SPACE-TRACK.ORG API,2004-08-17T15:09:24,18 SPCS,PEGASUS DEB,1994-029KG,EARTH,TEME,UTC,SGP4,1997-07-02T08:01:57.071712,16.07875247,0.0013648,82.2211,159.2686,219.5273,141.8342,0,U,24205,999,34110,0.011645,0.06663537,0.11488,6630.819,89.559,261.734,243.634,DEBRIS,SMALL,US,1994-05-19,AFWTR,1997-07-02,35237,25224961,0 PEGASUS DEB,1 24205U 94029KG  97183.33468833  .06663537  11488+0  11645-1 0  9998,2 24205 082.2211 159.2686 0013648 219.5273 141.8342 16.07875247341108
3.0,GENERATED VIA SPACE-TRACK.ORG API,2004-08-15T23:40:35,18 SPCS,SL-4 R/B,1977-016B,EARTH,TEME,UTC,SGP4,1977-03-04T12:44:11.467391,16.40685463,0.0012869,72.8811,320.5018,306.0626,54.7534,0,U,9858,999,18,0.0,0.05775288,0.0,6542.12,87.768,172.404,155.566,ROCKET BODY,,,,,1977-03-04,34010,10098109,0 SL-4 R/B,1 09858U 77016  B 77063.53068828  .05775288 +00000-0 +00000-0 0  9996,2 09858 072.8811 320.5018 0012869 306.0626 054.7534 16.40685463000187
3.0,GENERATED VIA SPACE-TRACK.ORG API,2005-04-29T09:12:45,18 SPCS,COSMOS 2083 DEB,1990-053D,EARTH,TEME,UTC,SGP4,1990-09-30T17:48:40.994496,16.52733056,0.0014831,82.5568,313.4995,232.7032,127.9857,0,U,20676,999,1639,0.0001429,0.20094139,-1.03e-05,6510.289,87.128,141.81,122.499,DEBRIS,,,,,1990-09-30,131174,45033549,0 COSMOS 2083 DEB,1 20676U 90053  D 90273.74214114  .20094139 -10300-4 +14290-3 0  9999,2 20676 082.5568 313.4995 0014831 232.7032 127.9857 16.52733056016393
3.0,GENERATED VIA SPACE-TRACK.ORG API,2004-05-29T18:24:12,18 SPCS,SL-8 R/B,1971-052B,EARTH,TEME,UTC,SGP4,2003-06-30T21:57:07.756703,16.51443502,0.0020017,73.9288,329.714,258.9003,101.0407,0,U,5282,999,63033,0.00023341,0.30172673,1.9916e-06,6513.678,87.196,148.581,122.504,ROCKET BODY,LARGE,CIS,1971-06-04,PKMTR,2003-07-01,7406,5675599,0 SL-8 R/B,1  5282U 71052B   03181.91467311 +.30172673 +19916-5 +23341-3 0  9993,2  5282 073.9288 329.7140 0020017 258.9003 101.0407 16.51443502630338
3.0,GENERATED VIA SPACE-TRACK.ORG API,2005-05-02T23:40:10,18 SPCS,ARIANE 1 DEB,1986-019EL,EARTH,TEME,UTC,SGP4,1989-04-07T17:25:46.698815,15.54192339,0.0024069,98.6939,204.1612,290.1382,71.3893,0,U,17378,999,12573,0.085824,0.05653195,0.0,6782.642,92.652,420.832,388.182,DEBRIS,SMALL,FR,1986-02-22,FRGUI,1989-04-09,131042,43970432,0 ARIANE 1 DEB,1 17378U 86019 EL 89097.72623494  .05653195 +00000-0 +85824-1 0  9992,2 17378 098.6939 204.1612 0024069 290.1382 071.3893 15.54192339125735
3.0,GENERATED VIA SPACE-TRACK.ORG API,2017-03-11T21:30:29,18 SPCS,SPINSAT,1998-067FL,EARTH,TEME,UTC,SGP4,2017-03-11T20:47:31.351776,16.50743229,0.0005698,51.6077,46.2938,162.2115,198.1476,0,U,40314,999,18275,0.00010533,0.10752586,1.2608e-05,6515.516,87.233,141.093,133.668,PAYLOAD,MEDIUM,US,1998-11-20,TTMTR,2017-03-11,2163901,110357764,0 SPINSAT,1 40314U 98067FL  17070.86633509  .10752586  12608-4  10533-3 0  9997,2 40314  51.6077  46.2938 0005698 162.2115 198.1476 16.50743229182756
3.0,GENERATED VIA SPACE-TRACK.ORG API,2022-02-04T00:58:27,18 SPCS,COSMOS 1408 DEB,1982-092UP,EARTH,TEME,UTC,SGP4,2022-02-03T10:21:23.274432,16.17105576,0.0020757,82.5077,37.2594,348.4039,11.6767,0,U,50099,999,1025,0.0021691,0.03416643,-1.1815e-06,6605.559,89.048,241.135,213.713,DEBRIS,SMALL,CIS,1982-09-16,PKMTR,2022-02-06,3291268,195235901,0 COSMOS 1408 DEB,1 50099U 82092UP  22034.43151938  .03416643 -11815-5  21691-2 0  9999,2 50099  82.5077  37.2594 0020757 348.4039  11.6767 16.17105576 10251
3.0,GENERATED VIA SPACE-TRACK.ORG API,2024-10-11T03:28:28,18 SPCS,CZ-6A DEB,2022-151JL,EARTH,TEME,UTC,SGP4,2024-10-10T14:29:40.521408,15.60152402,0.0019016,98.643,328.7104,298.1377,61.7954,0,U,54508,999,2857,0.043738,0.04205041,0.0,6765.353,92.299,400.083,374.353,DEBRIS,SMALL,PRC,2022-11-11,TSC,2024-10-10,4521009,270260621,0 CZ-6A DEB,1 54508U 22151JL  24284.60394122  .04205041  00000-0  43738-1 0  9992,2 54508  98.6430 328.7104 0019016 298.1377  61.7954 15.60152402 28573
3.0,GENERATED VIA SPACE-TRACK.ORG API,2004-05-28T19:12:50,18 SPCS,COSMOS 397 DEB,1971-015DR,EARTH,TEME,UTC,SGP4,2002-08-31T15:45:14.707872,16.24734874,0.0027133,65.7253,343.7833,240.0995,119.7496,0,U,19318,999,38000,0.0044392,0.13799066,6.6679e-06,6584.868,88.629,224.6,188.866,DEBRIS,SMALL,CIS,1971-02-25,TTMTR,2002-08-31,6901,3525817,0 COSMOS 397 DEB,1 19318U 71015DR  02243.65642023 +.13799066 +66679-5 +44392-2 0  9999,2 19318 065.7253 343.7833 0027133 240.0995 119.7496 16.24734874380002
3.0,GENERATED VIA SPACE-TRACK.ORG API,2004-08-16T23:13:47,18 SPCS,COSMOS 434,1971-069A,EARTH,TEME,UTC,SGP4,1981-08-22T14:29:17.977055,16.39340713,0.008792,51.3636,29.9362,274.9947,84.7774,0,U,5407,999,32139,8.9909e-05,0.10779871,5.6409e-05,6545.698,87.84,225.112,110.013,PAYLOAD,LARGE,CIS,1971-08-12,TTMTR,1981-08-22,34302,11975346,0 COSMOS 434,1 05407U 71069  A 81234.60368029  .10779871 +56409-4 +89909-4 0  9998,2 05407 051.3636 029.9362 0087920 274.9947 084.7774 16.39340713321393
3.0,GENERATED VIA SPACE-TRACK.ORG API,2004-08-16T23:15:23,18 SPCS,COSMOS 1307 DEB,1981-090D,EARTH,TEME,UTC,SGP4,1981-10-14T19:45:03.801023,16.15830096,0.0021462,72.8657,100.4254,179.2793,202.5433,0,U,12873,999,461,0.001552,0.0226167,1.9935e-06,6609.039,89.118,245.088,216.719,DEBRIS,,,,,1981-10-15,34334,12287227,0 COSMOS 1307 DEB,1 12873U 81090  D 81287.82296066  .02261670 +19935-5 +15520-2 0  9995,2 12873 072.8657 100.4254 0021462 179.2793 202.5433 16.15830096004616
3.0,GENERATED VIA SPACE-TRACK.ORG API,2004-08-16T23:15:23,18 SPCS,SL-6 PLAT,1981-105B,EARTH,TEME,UTC,SGP4,1981-11-04T05:29:07.702368,16.26663971,0.008124,62.8409,357.0555,113.9181,247.0369,0,U,12916,999,283,5.507e-06,0.07138082,8.2e-07,6579.661,88.524,254.979,148.073,DEBRIS,,,,,1981-11-04,34334,12289158,0 SL-6 PLAT,1 12916U 81105  B 81308.22856137  .07138082 +08200-5 +05507-4 0  9993,2 12916 062.8409 357.0555 0081240 113.9181 247.0369 16.26663971002830
3.0,GENERATED VIA SPACE-TRACK.ORG API,2024-10-04T03:43:09,18 SPCS,DMSP 5D-2 F11 DEB,1991-082AF,EARTH,TEME,UTC,SGP4,2024-10-03T08:48:19.376352,15.4079341,0.0035538,98.714,58.654,280.141,140.5998,0,U,28318,999,6383,0.037186,0.01739165,0.0,6821.903,93.458,468.012,419.525,DEBRIS,SMALL,US,1991-11-28,AFWTR,2024-10-10,4513468,269622838,0 DMSP 5D-2 F11 DEB,1 28318U 91082AF  24277.36689093  .01739165  00000-0  37186-1 0  9996,2 28318  98.7140  58.6540 0035538 280.1410 140.5998 15.40793410 63831
3.0,GENERATED VIA SPACE-TRACK.ORG API,2004-08-17T15:21:45,18 SPCS,PEGASUS DEB,1994-029BH,EARTH,TEME,UTC,SGP4,1998-10-02T19:52:26.386752,15.70105415,0.0015817,81.6466,51.2581,279.0375,80.0556,0,U,24012,999,12372,0.077621,0.11810511,0.0,6736.736,91.713,369.257,347.946,DEBRIS,SMALL,US,1994-05-19,AFWTR,1998-10-03,35484,28627844,0 PEGASUS DEB,1 24012U 94029BH  98275.82808318 +.11810511 +00000-0 +77621-1 0  9994,2 24012 081.6466 051.2581 0015817 279.0375 080.0556 15.70105415123727
3.0,GENERATED VIA SPACE-TRACK.ORG API,2005-05-02T23:40:10,18 SPCS,SL-3 R/B,1969-029B,EARTH,TEME,UTC,SGP4,1989-06-09T02:06:45.038591,16.34330386,0.0020715,81.123,340.1467,254.5019,105.555,0,U,3836,999,38,0.00058229,0.04176262,-8.6e-06,6559.069,88.109,194.521,167.347,ROCKET BODY,LARGE,CIS,1969-03-26,PKMTR,1989-06-10,131042,43449791,0 SL-3 R/B,1 03836U 69029  B 89160.08802128  .04176262 -86000-5 +58229-3 0  9996,2 03836 081.1230 340.1467 0020715 254.5019 105.5550 16.34330386000382
3.0,GENERATED VIA SPACE-TRACK.ORG API,2004-08-16T23:15:56,18 SPCS,COSMOS 1412 DEB (ANTENNA,1982-099C,EARTH,TEME,UTC,SGP4,1982-11-12T06:10:16.998816,16.34637418,0.0005236,64.985,254.079,271.8523,88.5666,0,U,13646,999,663,0.0024841,0.17835403,3.6386e-05,6558.247,88.092,183.546,176.678,DEBRIS,,CIS,1982-10-02,TTMTR,1982-11-12,34345,12924901,0 COSMOS 1412 DEB (ANTENNA,1 13646U 82099  C 82316.25714119  .17835403 +36386-4 +24841-2 0  9990,2 13646 064.9850 254.0790 0005236 271.8523 088.5666 16.34637418006632
